ONEWEB-0236             
1 48797U 21045AG  26199.58752055  .00000036  00000+0  61655-4 0  9996
2 48797  87.8974 252.9492 0002081  94.4205 265.7163 13.15548828248388
ONEWEB-0248             
1 48798U 21045AH  26199.60018902  .00000088  00000+0  19991-3 0  9998
2 48798  87.8992 252.9330 0002475 105.4151 254.7253 13.15549311248544
ONEWEB-0225             
1 48799U 21045AJ  26199.16603699  .00000005  00000+0 -20691-4 0  9993
2 48799  87.8987 253.0267 0002335 111.7242 248.4137 13.15548245248496
ONEWEB-0215             
1 48800U 21045AK  26199.59226354  .00000154  00000+0  37390-3 0  9999
2 48800  87.8989 252.9264 0002501 112.3687 247.7708 13.15549471248422
ONEWEB-0216             
1 48801U 21045AL  26199.60178291  .00000071  00000+0  15369-3 0  9998
2 48801  87.8986 252.9377 0002034  97.8227 262.3134 13.15547513248435
ONEWEB-0239             
1 48802U 21045AM  26199.15019327  .00000187  00000+0  46327-3 0  9999
2 48802  87.8982 253.0315 0002762 109.7786 250.3642 13.15548409248411
ONEWEB-0249             
1 48967U 21060A   26199.51561891  .00000122  00000+0  28501-3 0  9999
2 48967  87.9078 222.5551 0002172  94.4230 265.7149 13.16592538243737
ONEWEB-0250             
1 48968U 21060B   26199.47570022 -.00000011  00000+0 -55234-4 0  9994
2 48968  87.9079 220.2173 0003045  83.2202 276.9281 13.25835331244361
ONEWEB-0252             
1 48970U 21060D   26199.09052229 -.00000025  00000+0 -10006-3 0  9991
2 48970  87.9078 222.6316 0001882  96.4001 263.7344 13.16595670243720
ONEWEB-0253             
1 48971U 21060E   26199.45942622 -.00000019  00000+0 -84066-4 0  9998
2 48971  87.9079 222.5633 0002229  93.4012 266.7374 13.16595189243707
ONEWEB-0254             
1 48972U 21060F   26199.08894925 -.00000022  00000+0 -91798-4 0  9994
2 48972  87.9082 222.6354 0002333  97.7093 262.4303 13.16594644243659
ONEWEB-0255             
1 48973U 21060G   26199.50693270  .00000082  00000+0  18217-3 0  9990
2 48973  87.9076 222.5584 0002218  97.7258 262.4125 13.16593776243783
ONEWEB-0256             
1 48974U 21060H   26199.53306356  .00000948  00000+0  24460-2 0  9997
2 48974  87.9075 222.5560 0002052  94.8908 265.2457 13.16587678243753
ONEWEB-0257             
1 48975U 21060J   26199.10953126 -.00000031  00000+0 -11436-3 0  9999
2 48975  87.9076 222.6287 0002057  97.3934 262.7431 13.16593812243654
ONEWEB-0258             
1 48976U 21060K   26199.33908879  .00001268  00000+0  32825-2 0  9995
2 48976  87.9077 222.5961 0002221  96.3576 263.7808 13.16605592243690
ONEWEB-0259             
1 48977U 21060L   26199.10478128 -.00000064  00000+0 -20141-3 0  9994
2 48977  87.9076 222.6407 0002259  94.7493 265.3896 13.16594080243691
ONEWEB-0260             
1 48978U 21060M   26199.09605264 -.00000265  00000+0 -72797-3 0  9993
2 48978  87.9073 222.6426 0001698  94.4812 265.6513 13.16593644243670
ONEWEB-0261             
1 48979U 21060N   26199.52197912  .00000079  00000+0  17373-3 0  9998
2 48979  87.9075 222.5588 0002090 102.2482 257.8884 13.16593390243783
ONEWEB-0262             
1 48980U 21060P   26199.50218200  .00000050  00000+0  97524-4 0  9998
2 48980  87.9077 222.5494 0002338  94.1483 265.9916 13.16594066243741
ONEWEB-0263             
1 48981U 21060Q   26199.45784905  .00000006  00000+0 -17239-4 0  9990
2 48981  87.9079 222.5698 0002229 100.2842 259.8540 13.16594060243702
ONEWEB-0264             
1 48982U 21060R   26199.34305224  .00000057  00000+0  11495-3 0  9994
2 48982  87.9072 222.5946 0001975  98.0317 262.1039 13.16592293243694
ONEWEB-0266             
1 48984U 21060T   26199.51641559  .00000080  00000+0  17609-3 0  9998
2 48984  87.9077 222.5519 0002101  91.3831 268.7541 13.16595572243701
ONEWEB-0267             
1 48985U 21060U   26199.52751449 -.00000024  00000+0 -97111-4 0  9997
2 48985  87.9080 222.5465 0002080 100.1736 259.9629 13.16594307243710
ONEWEB-0268             
1 48986U 21060V   26199.49583489 -.00000955  00000+0 -25311-2 0  9995
2 48986  87.9075 222.5621 0001975  91.9337 268.2020 13.16598868243977
ONEWEB-0269             
1 48987U 21060W   26199.32485461 -.00000072  00000+0 -22182-3 0  9993
2 48987  87.9071 222.5960 0001952  89.3496 270.7859 13.16593911243727
ONEWEB-0270             
1 48988U 21060X   26199.49424653  .00000016  00000+0  75477-5 0  9991
2 48988  87.9079 222.5645 0002357  98.7974 261.3424 13.16592349243785
ONEWEB-0271             
1 48989U 21060Y   26199.48160010 -.00000083  00000+0 -25010-3 0  9997
2 48989  87.9075 222.5563 0002158  99.5018 260.6357 13.16594199243780
ONEWEB-0272             
1 48990U 21060Z   26199.50375572  .00000066  00000+0  13942-3 0  9993
2 48990  87.9070 222.5626 0001904 100.0064 260.1282 13.16595271243733
ONEWEB-0273             
1 48991U 21060AA  26199.52591306  .00000879  00000+0  22648-2 0  9995
2 48991  87.9076 222.5595 0002232  95.2951 264.8435 13.16601629243714
ONEWEB-0274             
1 48992U 21060AB  26199.32325475 -.00000050  00000+0 -16461-3 0  9996
2 48992  87.9071 222.5988 0001772  96.3236 263.8097 13.16595577243720
