OBJECT_NAME,OBJECT_ID,EPOCH,MEAN_MOTION,ECCENTRICITY,INCLINATION,RA_OF_ASC_NODE,ARG_OF_PERICENTER,MEAN_ANOMALY,EPHEMERIS_TYPE,CLASSIFICATION_TYPE,NORAD_CAT_ID,ELEMENT_SET_NO,REV_AT_EPOCH,BSTAR,MEAN_MOTION_DOT,MEAN_MOTION_DDOT
ONEWEB-0236,2021-045AG,2026-07-18T14:06:01.775520,13.15548828,.00020815,87.8974,252.9492,94.4205,265.7163,0,U,48797,999,24838,.61655023E-4,.36E-6,0
ONEWEB-0248,2021-045AH,2026-07-18T14:24:16.331328,13.15549311,.0002475,87.8992,252.9330,105.4151,254.7253,0,U,48798,999,24854,.19990986E-3,.88E-6,0
ONEWEB-0225,2021-045AJ,2026-07-18T03:59:05.595936,13.15548245,.00023354,87.8987,253.0267,111.7242,248.4137,0,U,48799,999,24849,-.20690826E-4,.5E-7,0
ONEWEB-0215,2021-045AK,2026-07-18T14:12:51.569856,13.15549471,.00025013,87.8989,252.9264,112.3687,247.7708,0,U,48800,999,24842,.37390316E-3,.154E-5,0
ONEWEB-0216,2021-045AL,2026-07-18T14:26:34.043424,13.15547513,.00020349,87.8986,252.9377,97.8227,262.3134,0,U,48801,999,24843,.15369427E-3,.71E-6,0
ONEWEB-0239,2021-045AM,2026-07-18T03:36:16.698528,13.15548409,.00027624,87.8982,253.0315,109.7786,250.3642,0,U,48802,999,24841,.46326539E-3,.187E-5,0
ONEWEB-0249,2021-060A,2026-07-18T12:22:29.473824,13.16592538,.00021726,87.9078,222.5551,94.4230,265.7149,0,U,48967,999,24373,.28500678E-3,.122E-5,0
ONEWEB-0250,2021-060B,2026-07-18T11:25:00.499008,13.25835331,.00030452,87.9079,220.2173,83.2202,276.9281,0,U,48968,999,24436,-.55233895E-4,-.11E-6,0
ONEWEB-0252,2021-060D,2026-07-18T02:10:21.125856,13.16595670,.00018824,87.9078,222.6316,96.4001,263.7344,0,U,48970,999,24372,-.10005799E-3,-.25E-6,0
ONEWEB-0253,2021-060E,2026-07-18T11:01:34.425408,13.16595189,.00022292,87.9079,222.5633,93.4012,266.7374,0,U,48971,999,24370,-.84066368E-4,-.19E-6,0
ONEWEB-0254,2021-060F,2026-07-18T02:08:05.215200,13.16594644,.00023338,87.9082,222.6354,97.7093,262.4303,0,U,48972,999,24365,-.9179838E-4,-.22E-6,0
ONEWEB-0255,2021-060G,2026-07-18T12:09:58.985280,13.16593776,.00022187,87.9076,222.5584,97.7258,262.4125,0,U,48973,999,24378,.18217155E-3,.82E-6,0
ONEWEB-0256,2021-060H,2026-07-18T12:47:36.691584,13.16587678,.00020526,87.9075,222.5560,94.8908,265.2457,0,U,48974,999,24375,.24460336E-2,.948E-5,0
ONEWEB-0257,2021-060J,2026-07-18T02:37:43.500864,13.16593812,.00020572,87.9076,222.6287,97.3934,262.7431,0,U,48975,999,24365,-.11435959E-3,-.31E-6,0
ONEWEB-0258,2021-060K,2026-07-18T08:08:17.271456,13.16605592,.00022215,87.9077,222.5961,96.3576,263.7808,0,U,48976,999,24369,.32825225E-2,.1268E-4,0
ONEWEB-0259,2021-060L,2026-07-18T02:30:53.102592,13.16594080,.00022592,87.9076,222.6407,94.7493,265.3896,0,U,48977,999,24369,-.20141292E-3,-.64E-6,0
ONEWEB-0260,2021-060M,2026-07-18T02:18:18.948096,13.16593644,.00016987,87.9073,222.6426,94.4812,265.6513,0,U,48978,999,24367,-.72796871E-3,-.265E-5,0
ONEWEB-0261,2021-060N,2026-07-18T12:31:38.995968,13.16593390,.00020907,87.9075,222.5588,102.2482,257.8884,0,U,48979,999,24378,.17372538E-3,.79E-6,0
ONEWEB-0262,2021-060P,2026-07-18T12:03:08.524800,13.16594066,.00023387,87.9077,222.5494,94.1483,265.9916,0,U,48980,999,24374,.97524208E-4,.5E-6,0
ONEWEB-0263,2021-060Q,2026-07-18T10:59:18.157920,13.16594060,.00022291,87.9079,222.5698,100.2842,259.8540,0,U,48981,999,24370,-.17239209E-4,.6E-7,0
ONEWEB-0264,2021-060R,2026-07-18T08:13:59.713536,13.16592293,.00019756,87.9072,222.5946,98.0317,262.1039,0,U,48982,999,24369,.11494808E-3,.57E-6,0
ONEWEB-0266,2021-060T,2026-07-18T12:23:38.306976,13.16595572,.00021012,87.9077,222.5519,91.3831,268.7541,0,U,48984,999,24370,.17608625E-3,.8E-6,0
ONEWEB-0267,2021-060U,2026-07-18T12:39:37.251936,13.16594307,.000208,87.9080,222.5465,100.1736,259.9629,0,U,48985,999,24371,-.97110753E-4,-.24E-6,0
ONEWEB-0268,2021-060V,2026-07-18T11:54:00.134496,13.16598868,.00019755,87.9075,222.5621,91.9337,268.2020,0,U,48986,999,24397,-.25311191E-2,-.955E-5,0
ONEWEB-0269,2021-060W,2026-07-18T07:47:47.438304,13.16593911,.00019527,87.9071,222.5960,89.3496,270.7859,0,U,48987,999,24372,-.22182495E-3,-.72E-6,0
ONEWEB-0270,2021-060X,2026-07-18T11:51:42.900192,13.16592349,.0002357,87.9079,222.5645,98.7974,261.3424,0,U,48988,999,24378,.754765E-5,.16E-6,0
ONEWEB-0271,2021-060Y,2026-07-18T11:33:30.248640,13.16594199,.00021588,87.9075,222.5563,99.5018,260.6357,0,U,48989,999,24378,-.25009639E-3,-.83E-6,0
ONEWEB-0272,2021-060Z,2026-07-18T12:05:24.494208,13.16595271,.00019041,87.9070,222.5626,100.0064,260.1282,0,U,48990,999,24373,.13942313E-3,.66E-6,0
ONEWEB-0273,2021-060AA,2026-07-18T12:37:18.888384,13.16601629,.0002232,87.9076,222.5595,95.2951,264.8435,0,U,48991,999,24371,.22647887E-2,.879E-5,0
ONEWEB-0274,2021-060AB,2026-07-18T07:45:29.210400,13.16595577,.00017721,87.9071,222.5988,96.3236,263.8097,0,U,48992,999,24372,-.16461058E-3,-.5E-6,0
